[{"OBJECT_NAME":"ONEWEB-0101","OBJECT_ID":"2021-025H","EPOCH":"2026-02-24T05:57:37.854720","MEAN_MOTION":13.13470003,"ECCENTRICITY":0.00018265,"INCLINATION":87.9042,"RA_OF_ASC_NODE":342.687,"ARG_OF_PERICENTER":85.7971,"MEAN_ANOMALY":274.3367,"EPHEMERIS_TYPE":0,"CLASSIFICATION_TYPE":"U","NORAD_CAT_ID":48049,"ELEMENT_SET_NO":999,"REV_AT_EPOCH":23867,"BSTAR":0.00047453407,"MEAN_MOTION_DOT":1.86e-6,"MEAN_MOTION_DDOT":0},{"OBJECT_NAME":"ONEWEB-0113","OBJECT_ID":"2021-025J","EPOCH":"2026-02-24T05:39:57.038976","MEAN_MOTION":13.1397377,"ECCENTRICITY":0.00015187,"INCLINATION":87.9047,"RA_OF_ASC_NODE":342.6102,"ARG_OF_PERICENTER":79.2797,"MEAN_ANOMALY":280.8503,"EPHEMERIS_TYPE":0,"CLASSIFICATION_TYPE":"U","NORAD_CAT_ID":48050,"ELEMENT_SET_NO":999,"REV_AT_EPOCH":23877,"BSTAR":0.00062409162,"MEAN_MOTION_DOT":2.42e-6,"MEAN_MOTION_DDOT":0},{"OBJECT_NAME":"ONEWEB-0112","OBJECT_ID":"2021-025K","EPOCH":"2026-02-24T06:58:33.978720","MEAN_MOTION":13.134697,"ECCENTRICITY":0.00019106,"INCLINATION":87.9046,"RA_OF_ASC_NODE":342.6494,"ARG_OF_PERICENTER":85.0756,"MEAN_ANOMALY":275.0591,"EPHEMERIS_TYPE":0,"CLASSIFICATION_TYPE":"U","NORAD_CAT_ID":48051,"ELEMENT_SET_NO":999,"REV_AT_EPOCH":23877,"BSTAR":-0.00052840562,"MEAN_MOTION_DOT":-1.8e-6,"MEAN_MOTION_DDOT":0},{"OBJECT_NAME":"ONEWEB-0156","OBJECT_ID":"2021-025L","EPOCH":"2026-02-24T05:21:03.195360","MEAN_MOTION":13.13470463,"ECCENTRICITY":0.00018753,"INCLINATION":87.9048,"RA_OF_ASC_NODE":342.6737,"ARG_OF_PERICENTER":77.5593,"MEAN_ANOMALY":282.5746,"EPHEMERIS_TYPE":0,"CLASSIFICATION_TYPE":"U","NORAD_CAT_ID":48052,"ELEMENT_SET_NO":999,"REV_AT_EPOCH":23874,"BSTAR":-0.00064569486,"MEAN_MOTION_DOT":-2.23e-6,"MEAN_MOTION_DDOT":0},{"OBJECT_NAME":"ONEWEB-0161","OBJECT_ID":"2021-025M","EPOCH":"2026-02-24T06:34:11.292384","MEAN_MOTION":13.13469999,"ECCENTRICITY":0.00019315,"INCLINATION":87.9035,"RA_OF_ASC_NODE":342.6742,"ARG_OF_PERICENTER":77.7989,"MEAN_ANOMALY":282.3356,"EPHEMERIS_TYPE":0,"CLASSIFICATION_TYPE":"U","NORAD_CAT_ID":48053,"ELEMENT_SET_NO":999,"REV_AT_EPOCH":23868,"BSTAR":-0.00084707056,"MEAN_MOTION_DOT":-2.97e-6,"MEAN_MOTION_DDOT":0},{"OBJECT_NAME":"ONEWEB-0158","OBJECT_ID":"2021-025N","EPOCH":"2026-02-24T05:35:41.524800","MEAN_MOTION":13.13469653,"ECCENTRICITY":0.00014676,"INCLINATION":87.9046,"RA_OF_ASC_NODE":342.6715,"ARG_OF_PERICENTER":83.6285,"MEAN_ANOMALY":276.5011,"EPHEMERIS_TYPE":0,"CLASSIFICATION_TYPE":"U","NORAD_CAT_ID":48054,"ELEMENT_SET_NO":999,"REV_AT_EPOCH":23880,"BSTAR":0.0007362366,"MEAN_MOTION_DOT":2.82e-6,"MEAN_MOTION_DDOT":0},{"OBJECT_NAME":"ONEWEB-0157","OBJECT_ID":"2021-025P","EPOCH":"2026-02-24T06:12:14.978880","MEAN_MOTION":13.13468016,"ECCENTRICITY":0.00021851,"INCLINATION":87.9047,"RA_OF_ASC_NODE":342.6716,"ARG_OF_PERICENTER":82.3732,"MEAN_ANOMALY":277.7645,"EPHEMERIS_TYPE":0,"CLASSIFICATION_TYPE":"U","NORAD_CAT_ID":48055,"ELEMENT_SET_NO":999,"REV_AT_EPOCH":23874,"BSTAR":0.00073236622,"MEAN_MOTION_DOT":2.8e-6,"MEAN_MOTION_DDOT":0},{"OBJECT_NAME":"ONEWEB-0162","OBJECT_ID":"2021-025Q","EPOCH":"2026-02-24T05:37:56.471232","MEAN_MOTION":13.13470543,"ECCENTRICITY":0.00018873,"INCLINATION":87.9046,"RA_OF_ASC_NODE":342.6801,"ARG_OF_PERICENTER":73.5026,"MEAN_ANOMALY":286.631,"EPHEMERIS_TYPE":0,"CLASSIFICATION_TYPE":"U","NORAD_CAT_ID":48056,"ELEMENT_SET_NO":999,"REV_AT_EPOCH":23871,"BSTAR":0.00090620047,"MEAN_MOTION_DOT":3.44e-6,"MEAN_MOTION_DDOT":0},{"OBJECT_NAME":"ONEWEB-0155","OBJECT_ID":"2021-025R","EPOCH":"2026-02-24T05:47:52.480032","MEAN_MOTION":13.13469505,"ECCENTRICITY":0.00018936,"INCLINATION":87.9038,"RA_OF_ASC_NODE":342.6792,"ARG_OF_PERICENTER":84.0178,"MEAN_ANOMALY":276.1167,"EPHEMERIS_TYPE":0,"CLASSIFICATION_TYPE":"U","NORAD_CAT_ID":48057,"ELEMENT_SET_NO":999,"REV_AT_EPOCH":23885,"BSTAR":0.00056153273,"MEAN_MOTION_DOT":2.18e-6,"MEAN_MOTION_DDOT":0},{"OBJECT_NAME":"ONEWEB-0149","OBJECT_ID":"2021-025S","EPOCH":"2026-02-24T06:19:33.632544","MEAN_MOTION":13.13467741,"ECCENTRICITY":0.0001865,"INCLINATION":87.9048,"RA_OF_ASC_NODE":342.6709,"ARG_OF_PERICENTER":72.6648,"MEAN_ANOMALY":287.4685,"EPHEMERIS_TYPE":0,"CLASSIFICATION_TYPE":"U","NORAD_CAT_ID":48058,"ELEMENT_SET_NO":999,"REV_AT_EPOCH":23866,"BSTAR":0.00021093075,"MEAN_MOTION_DOT":9.0e-7,"MEAN_MOTION_DDOT":0},{"OBJECT_NAME":"ONEWEB-0148","OBJECT_ID":"2021-025T","EPOCH":"2026-02-24T05:25:56.907840","MEAN_MOTION":13.13470688,"ECCENTRICITY":0.0002183,"INCLINATION":87.9039,"RA_OF_ASC_NODE":342.6932,"ARG_OF_PERICENTER":65.9676,"MEAN_ANOMALY":294.1681,"EPHEMERIS_TYPE":0,"CLASSIFICATION_TYPE":"U","NORAD_CAT_ID":48059,"ELEMENT_SET_NO":999,"REV_AT_EPOCH":23878,"BSTAR":0.0003135465,"MEAN_MOTION_DOT":1.27e-6,"MEAN_MOTION_DDOT":0},{"OBJECT_NAME":"ONEWEB-0160","OBJECT_ID":"2021-025U","EPOCH":"2026-02-24T05:50:18.745728","MEAN_MOTION":13.13468568,"ECCENTRICITY":0.00010272,"INCLINATION":87.9037,"RA_OF_ASC_NODE":342.687,"ARG_OF_PERICENTER":74.482,"MEAN_ANOMALY":285.6423,"EPHEMERIS_TYPE":0,"CLASSIFICATION_TYPE":"U","NORAD_CAT_ID":48060,"ELEMENT_SET_NO":999,"REV_AT_EPOCH":23873,"BSTAR":0.0010276602,"MEAN_MOTION_DOT":3.88e-6,"MEAN_MOTION_DDOT":0},{"OBJECT_NAME":"ONEWEB-0163","OBJECT_ID":"2021-025V","EPOCH":"2026-02-24T05:28:22.581696","MEAN_MOTION":13.13471037,"ECCENTRICITY":0.00019965,"INCLINATION":87.9051,"RA_OF_ASC_NODE":342.6798,"ARG_OF_PERICENTER":83.2642,"MEAN_ANOMALY":276.8714,"EPHEMERIS_TYPE":0,"CLASSIFICATION_TYPE":"U","NORAD_CAT_ID":48061,"ELEMENT_SET_NO":999,"REV_AT_EPOCH":23885,"BSTAR":-1.3585431e-5,"MEAN_MOTION_DOT":8.0e-8,"MEAN_MOTION_DDOT":0},{"OBJECT_NAME":"ONEWEB-0159","OBJECT_ID":"2021-025W","EPOCH":"2026-02-24T07:05:51.764064","MEAN_MOTION":13.13468505,"ECCENTRICITY":0.00020102,"INCLINATION":87.9051,"RA_OF_ASC_NODE":342.6534,"ARG_OF_PERICENTER":77.1065,"MEAN_ANOMALY":283.0289,"EPHEMERIS_TYPE":0,"CLASSIFICATION_TYPE":"U","NORAD_CAT_ID":48062,"ELEMENT_SET_NO":999,"REV_AT_EPOCH":23878,"BSTAR":-0.00035245241,"MEAN_MOTION_DOT":-1.16e-6,"MEAN_MOTION_DDOT":0},{"OBJECT_NAME":"ONEWEB-0164","OBJECT_ID":"2021-025X","EPOCH":"2026-02-24T06:39:03.331296","MEAN_MOTION":13.13469246,"ECCENTRICITY":0.00017019,"INCLINATION":87.9048,"RA_OF_ASC_NODE":342.6643,"ARG_OF_PERICENTER":79.1412,"MEAN_ANOMALY":280.9908,"EPHEMERIS_TYPE":0,"CLASSIFICATION_TYPE":"U","NORAD_CAT_ID":48063,"ELEMENT_SET_NO":999,"REV_AT_EPOCH":23876,"BSTAR":-0.0012651899,"MEAN_MOTION_DOT":-4.49e-6,"MEAN_MOTION_DDOT":0},{"OBJECT_NAME":"ONEWEB-0167","OBJECT_ID":"2021-025Y","EPOCH":"2026-02-24T05:29:36.140928","MEAN_MOTION":13.13470902,"ECCENTRICITY":0.00021515,"INCLINATION":87.9039,"RA_OF_ASC_NODE":342.6936,"ARG_OF_PERICENTER":96.1073,"MEAN_ANOMALY":264.0301,"EPHEMERIS_TYPE":0,"CLASSIFICATION_TYPE":"U","NORAD_CAT_ID":48064,"ELEMENT_SET_NO":999,"REV_AT_EPOCH":23874,"BSTAR":0.00042797707,"MEAN_MOTION_DOT":1.69e-6,"MEAN_MOTION_DDOT":0},{"OBJECT_NAME":"ONEWEB-0166","OBJECT_ID":"2021-025Z","EPOCH":"2026-02-24T06:02:30.049152","MEAN_MOTION":13.13468466,"ECCENTRICITY":0.00019445,"INCLINATION":87.9046,"RA_OF_ASC_NODE":342.6515,"ARG_OF_PERICENTER":74.8984,"MEAN_ANOMALY":285.236,"EPHEMERIS_TYPE":0,"CLASSIFICATION_TYPE":"U","NORAD_CAT_ID":48065,"ELEMENT_SET_NO":999,"REV_AT_EPOCH":23882,"BSTAR":0.00086623543,"MEAN_MOTION_DOT":3.29e-6,"MEAN_MOTION_DDOT":0},{"OBJECT_NAME":"ONEWEB-0151","OBJECT_ID":"2021-025AA","EPOCH":"2026-02-24T06:04:56.425440","MEAN_MOTION":13.13469831,"ECCENTRICITY":0.00017584,"INCLINATION":87.9043,"RA_OF_ASC_NODE":342.6776,"ARG_OF_PERICENTER":83.4291,"MEAN_ANOMALY":276.7038,"EPHEMERIS_TYPE":0,"CLASSIFICATION_TYPE":"U","NORAD_CAT_ID":48066,"ELEMENT_SET_NO":999,"REV_AT_EPOCH":23876,"BSTAR":-6.575359e-6,"MEAN_MOTION_DOT":1.0e-7,"MEAN_MOTION_DDOT":0},{"OBJECT_NAME":"ONEWEB-0170","OBJECT_ID":"2021-025AB","EPOCH":"2026-02-24T06:17:07.306368","MEAN_MOTION":13.13468406,"ECCENTRICITY":0.00014562,"INCLINATION":87.9041,"RA_OF_ASC_NODE":342.6777,"ARG_OF_PERICENTER":90.6567,"MEAN_ANOMALY":269.4729,"EPHEMERIS_TYPE":0,"CLASSIFICATION_TYPE":"U","NORAD_CAT_ID":48067,"ELEMENT_SET_NO":999,"REV_AT_EPOCH":23872,"BSTAR":0.00033111169,"MEAN_MOTION_DOT":1.34e-6,"MEAN_MOTION_DDOT":0},{"OBJECT_NAME":"ONEWEB-0168","OBJECT_ID":"2021-025AC","EPOCH":"2026-02-24T05:55:11.544096","MEAN_MOTION":13.1346764,"ECCENTRICITY":0.00019593,"INCLINATION":87.9047,"RA_OF_ASC_NODE":342.6709,"ARG_OF_PERICENTER":79.5202,"MEAN_ANOMALY":280.6148,"EPHEMERIS_TYPE":0,"CLASSIFICATION_TYPE":"U","NORAD_CAT_ID":48068,"ELEMENT_SET_NO":999,"REV_AT_EPOCH":23873,"BSTAR":0.00067615861,"MEAN_MOTION_DOT":2.6e-6,"MEAN_MOTION_DDOT":0},{"OBJECT_NAME":"ONEWEB-0173","OBJECT_ID":"2021-025AD","EPOCH":"2026-02-24T05:43:00.576768","MEAN_MOTION":13.1347,"ECCENTRICITY":0.00021188,"INCLINATION":87.9045,"RA_OF_ASC_NODE":342.6798,"ARG_OF_PERICENTER":86.1329,"MEAN_ANOMALY":274.0042,"EPHEMERIS_TYPE":0,"CLASSIFICATION_TYPE":"U","NORAD_CAT_ID":48069,"ELEMENT_SET_NO":999,"REV_AT_EPOCH":23897,"BSTAR":0.00055161364,"MEAN_MOTION_DOT":2.14e-6,"MEAN_MOTION_DDOT":0},{"OBJECT_NAME":"ONEWEB-0171","OBJECT_ID":"2021-025AE","EPOCH":"2026-02-24T06:36:37.117440","MEAN_MOTION":13.13471148,"ECCENTRICITY":0.0001749,"INCLINATION":87.9039,"RA_OF_ASC_NODE":342.6852,"ARG_OF_PERICENTER":82.0883,"MEAN_ANOMALY":278.0445,"EPHEMERIS_TYPE":0,"CLASSIFICATION_TYPE":"U","NORAD_CAT_ID":48070,"ELEMENT_SET_NO":999,"REV_AT_EPOCH":23879,"BSTAR":-0.00065340381,"MEAN_MOTION_DOT":-2.26e-6,"MEAN_MOTION_DDOT":0},{"OBJECT_NAME":"ONEWEB-0172","OBJECT_ID":"2021-025AF","EPOCH":"2026-02-24T06:07:22.709280","MEAN_MOTION":13.13467891,"ECCENTRICITY":0.00018537,"INCLINATION":87.9038,"RA_OF_ASC_NODE":342.6772,"ARG_OF_PERICENTER":84.0067,"MEAN_ANOMALY":276.1274,"EPHEMERIS_TYPE":0,"CLASSIFICATION_TYPE":"U","NORAD_CAT_ID":48071,"ELEMENT_SET_NO":999,"REV_AT_EPOCH":23968,"BSTAR":0.00070134418,"MEAN_MOTION_DOT":2.69e-6,"MEAN_MOTION_DDOT":0}]
